IRIDIUM 155             
1 43573U 18061E   21338.85298726  .00000115  00000+0  34065-4 0  9990
2 43573  86.3986  28.4805 0002259  83.0202 277.1251 14.34215435176094
IRIDIUM 154             
1 43574U 18061F   21338.90373980  .00000119  00000+0  35407-4 0  9998
2 43574  86.3989  28.5136 0002382 100.0794 260.0671 14.34218590176158
IRIDIUM 163             
1 43575U 18061G   21339.37309867  .00000120  00000+0  35624-4 0  9997
2 43575  86.3987  28.2835 0001804 102.8693 257.2704 14.34218354176193
IRIDIUM 156             
1 43576U 18061H   21339.41749503  .00000123  00000+0  37012-4 0  9994
2 43576  86.3988  28.2702 0001906  89.8937 270.2477 14.34216887176186
IRIDIUM 164             
1 43577U 18061J   21338.84031233  .00000127  00000+0  38452-4 0  9998
2 43577  86.3990  28.5265 0002214 100.9288 259.2157 14.34217070176158
IRIDIUM 159             
1 43578U 18061K   21339.43652941  .00000157  00000+0  49036-4 0  9993
2 43578  86.3988  28.2490 0002282  99.0709 261.0745 14.34218804176200
IRIDIUM 180             
1 43922U 19002A   21338.94764876  .00000092  00000+0  25681-4 0  9996
2 43922  86.3946 325.3253 0002344 111.6621 248.4824 14.34217765151742
IRIDIUM 176             
1 43923U 19002B   21339.00943374  .00000211  00000+0  29589-4 0  9991
2 43923  86.6081 325.3342 0002581  89.0558 271.0955 14.72248229155725
IRIDIUM 168             
1 43924U 19002C   21339.01106198  .00000088  00000+0  24419-4 0  9997
2 43924  86.3948 325.3293 0002326  95.8746 264.2715 14.34217230151732
IRIDIUM 173             
1 43925U 19002D   21339.06813958  .00000091  00000+0  25490-4 0  9996
2 43925  86.3945 325.2616 0002214  95.2248 264.9201 14.34216599151739
IRIDIUM 169             
1 43926U 19002E   21339.45092778  .00000121  00000+0  33077-4 0  9993
2 43926  86.4225 356.7020 0006206  48.7634 311.4098 14.38610613152324
IRIDIUM 172             
1 43927U 19002F   21339.48042300  .00000095  00000+0  26936-4 0  9999
2 43927  86.3945 325.0920 0002250  97.2551 262.8900 14.34218015151790
IRIDIUM 175             
1 43928U 19002G   21339.47900713  .00000233  00000+0  33002-4 0  9996
2 43928  86.6082 324.9623 0002251 101.3377 258.8093 14.72254127155785
IRIDIUM 171             
1 43929U 19002H   21339.46138713  .00000095  00000+0  26978-4 0  9999
2 43929  86.3955 325.2226 0002343  95.2229 264.9234 14.34217611151780
IRIDIUM 170             
1 43930U 19002J   21338.94766251  .00000206  00000+0  28771-4 0  9994
2 43930  86.6080 325.3659 0002449  95.5243 264.6254 14.72247575155722
IRIDIUM 167             
1 43931U 19002K   21339.03641712  .00000036  00000+0  57794-5 0  9999
2 43931  86.3947 325.2856 0002341 105.0386 255.1069 14.34215209151728
